ONEWEB-0336             
1 49202U 21083S   26157.74615598  .00000239  00000+0  61832-3 0  9993
2 49202  87.8944 322.3078 0002237  96.0924 264.0460 13.13470309229543
ONEWEB-0337             
1 49203U 21083T   26157.75617967  .00000364  00000+0  96283-3 0  9994
2 49203  87.8943 322.3121 0001945  98.5274 261.6076 13.13469791229541
ONEWEB-0338             
1 49204U 21083U   26157.05636405  .00000157  00000+0  35320-3 0  9991
2 49204  87.9180 276.6683 0001614 100.5135 259.6181 13.20770380235349
ONEWEB-0339             
1 49205U 21083V   26157.68859738  .00000282  00000+0  73665-3 0  9990
2 49205  87.8944 322.3176 0001503  97.8539 262.2761 13.13469603229517
ONEWEB-0340             
1 49206U 21083W   26157.73844199 -.00000054  00000+0 -16875-3 0  9991
2 49206  87.9166 337.5344 0001991  91.2767 268.8593 13.18685839228590
ONEWEB-0341             
1 49207U 21083X   26157.74518909  .00000056  00000+0  10924-3 0  9999
2 49207  87.9160 337.5369 0002049 104.2841 255.8519 13.18686171228612
ONEWEB-0342             
1 49208U 21083Y   26157.06310572  .00000083  00000+0  17151-3 0  9990
2 49208  87.9185 276.6544 0001802 102.3704 257.7631 13.20770604235310
ONEWEB-0343             
1 49209U 21083Z   26157.75362603  .00000090  00000+0  19540-3 0  9991
2 49209  87.9169 337.5336 0001415  98.1357 261.9936 13.18685722228663
ONEWEB-0344             
1 49210U 21083AA  26157.68352375  .00000330  00000+0  86991-3 0  9991
2 49210  87.8935 322.3339 0001983 104.8520 255.2829 13.13471353229517
ONEWEB-0345             
1 49211U 21083AB  26157.75123194  .00000403  00000+0  10688-2 0  9995
2 49211  87.8952 322.2996 0001911 103.4509 256.6833 13.13470749229538
ONEWEB-0346             
1 49212U 21083AC  26157.75024802 -.00000022  00000+0 -87880-4 0  9991
2 49212  87.9158 337.5349 0002442  86.0093 274.1318 13.18685344228607
ONEWEB-0348             
1 49213U 21083AD  26157.58329888  .00000056  00000+0  10603-3 0  9998
2 49213  87.9195 276.5537 0002482 102.3284 257.8128 13.20770968235412
ONEWEB-0350             
1 49214U 21083AE  26157.68749698  .00000368  00000+0  97983-3 0  9997
2 49214  87.8951 322.3152 0001968 100.6576 259.4774 13.12942830229551
ONEWEB-0351             
1 49215U 21083AF  26157.57641484  .00000154  00000+0  34649-3 0  9993
2 49215  87.9192 276.5535 0001549 126.9121 233.2154 13.20770194235377
ONEWEB-0352             
1 49216U 21083AG  26157.74107939  .00000167  00000+0  42364-3 0  9992
2 49216  87.8946 322.3135 0001469 102.6705 257.4588 13.13470769229650
ONEWEB-0354             
1 49217U 21083AH  26157.60351634  .00000123  00000+0  26936-3 0  9990
2 49217  87.9191 276.5478 0002312 104.8131 255.3258 13.20772774235410
ONEWEB-0355             
1 49218U 21083AJ  26157.69381460  .00000142  00000+0  35387-3 0  9991
2 49218  87.8942 322.3245 0001721 101.4746 258.6576 13.13469322229522
ONEWEB-0357             
1 49219U 21083AK  26157.60014719  .00000040  00000+0  66092-4 0  9998
2 49219  87.9194 276.5427 0001776 105.2265 254.9065 13.20771993235418
ONEWEB-0332             
1 49279U 21090A   26157.63824860 -.00000081  00000+0 -25432-3 0  9990
2 49279  87.8957 291.8121 0001668  96.6113 263.5207 13.14504357226196
ONEWEB-0347             
1 49280U 21090B   26157.59003811 -.00000109  00000+0 -29995-3 0  9991
2 49280  87.9192 276.5530 0001739  95.9956 264.1375 13.20772161229643
ONEWEB-0349             
1 49281U 21090C   26157.09173670  .00000070  00000+0  14071-3 0  9992
2 49281  87.9193 276.6525 0001929 102.1443 257.9906 13.20771523228362
ONEWEB-0353             
1 49282U 21090D   26157.40198239 -.00000167  00000+0 -48589-3 0  9996
2 49282  87.8955 291.8539 0001645  95.4489 264.6829 13.14502319226164
ONEWEB-0356             
1 49283U 21090E   26156.86278519 -.00000016  00000+0 -70354-4 0  9995
2 49283  87.9187 276.6915 0002389  82.1899 277.9505 13.20773247228332
ONEWEB-0358             
1 49284U 21090F   26157.57403844  .00000053  00000+0  98566-4 0  9990
2 49284  87.9187 276.5532 0002102  99.5678 260.5693 13.20770682229154
ONEWEB-0359             
1 49285U 21090G   26157.57152830  .00000144  00000+0  32342-3 0  9997
2 49285  87.9190 276.5501 0002232 102.8782 257.2601 13.20772737229136
ONEWEB-0360             
1 49286U 21090H   26157.56141060 -.00000182  00000+0 -48076-3 0  9995
2 49286  87.9196 276.5583 0001965 104.1755 255.9596 13.20770932228446
ONEWEB-0361             
1 49287U 21090J   26157.61865087  .00000088  00000+0  18435-3 0  9993
2 49287  87.9188 276.5453 0002114  99.6848 260.4524 13.20770615228903
ONEWEB-0362             
1 49288U 21090K   26157.71449770 -.00000114  00000+0 -31732-3 0  9999
2 49288  87.9160 307.0652 0001695 104.3256 255.8065 13.19724553225537
ONEWEB-0363             
1 49289U 21090L   26157.55803970 -.00000298  00000+0 -76447-3 0  9993
2 49289  87.9188 276.5576 0002121  92.5197 267.6179 13.20772150228909
ONEWEB-0364             
1 49290U 21090M   26157.59676969  .00000220  00000+0  50991-3 0  9994
2 49290  87.9185 276.5583 0001996 101.0836 259.0522 13.20770777230049
